{
  "type": "FeatureCollection",
  "features": [
    {
      "type": "Feature",
      "properties": {
        "norad_id": 33860,
        "name": "IRIDIUM 33 DEB",
        "group": "iridium-33-debris",
        "lat": 9.202837313891466,
        "lon": 24.635785078123785,
        "alt_km": 667.4035199576574,
        "timestamp": "2025-12-19T22:41:52.780468+00:00",
        "meta_object_name": "IRIDIUM 33 DEB",
        "meta_object_id": "1997-051AD",
        "meta_epoch": "2025-12-19T13:32:43.473120",
        "meta_mean_motion": 14.67445483,
        "meta_eccentricity": 0.0006592,
        "meta_inclination": 86.3824,
        "meta_ra_of_asc_node": 24.2173,
        "meta_arg_of_pericenter": 332.2396,
        "meta_mean_anomaly": 183.725,
        "meta_ephemeris_type": 0,
        "meta_classification_type": "U",
        "meta_norad_cat_id": 33860,
        "meta_element_set_no": 999,
        "meta_rev_at_epoch": 88822,
        "meta_bstar": 0.0007628,
        "meta_mean_motion_dot": 4.339e-05,
        "meta_mean_motion_ddot": 0,
        "tle_line1": "1 33860U 97051AD  25353.56439205  .00004339  00000+0  76280-3 0  9998",
        "tle_line2": "2 33860  86.3824  24.2173 0006592 332.2396 183.7250 14.67445483888222"
      },
      "geometry": {
        "type": "Point",
        "coordinates": [
          24.635785078123785,
          9.202837313891466
        ]
      }
    },
    {
      "type": "Feature",
      "properties": {
        "norad_id": 33862,
        "name": "IRIDIUM 33 DEB",
        "group": "iridium-33-debris",
        "lat": 79.33348427159615,
        "lon": -165.1263934772578,
        "alt_km": 633.6943846996028,
        "timestamp": "2025-12-19T22:41:52.780482+00:00",
        "meta_object_name": "IRIDIUM 33 DEB",
        "meta_object_id": "1997-051AF",
        "meta_epoch": "2025-12-19T04:34:26.830848",
        "meta_mean_motion": 14.69572736,
        "meta_eccentricity": 0.0052829,
        "meta_inclination": 86.4085,
        "meta_ra_of_asc_node": 34.686,
        "meta_arg_of_pericenter": 47.5905,
        "meta_mean_anomaly": 19.3889,
        "meta_ephemeris_type": 0,
        "meta_classification_type": "U",
        "meta_norad_cat_id": 33862,
        "meta_element_set_no": 999,
        "meta_rev_at_epoch": 88918,
        "meta_bstar": 0.00095208,
        "meta_mean_motion_dot": 5.8e-05,
        "meta_mean_motion_ddot": 0,
        "tle_line1": "1 33862U 97051AF  25353.19058832  .00005800  00000+0  95208-3 0  9997",
        "tle_line2": "2 33862  86.4085  34.6860 0052829  47.5905  19.3889 14.69572736889180"
      },
      "geometry": {
        "type": "Point",
        "coordinates": [
          -165.1263934772578,
          79.33348427159615
        ]
      }
    },
    {
      "type": "Feature",
      "properties": {
        "norad_id": 33866,
        "name": "IRIDIUM 33 DEB",
        "group": "iridium-33-debris",
        "lat": 81.37682706632812,
        "lon": -115.27109351770726,
        "alt_km": 737.1764630730613,
        "timestamp": "2025-12-19T22:41:52.780495+00:00",
        "meta_object_name": "IRIDIUM 33 DEB",
        "meta_object_id": "1997-051AK",
        "meta_epoch": "2025-12-19T17:53:32.660160",
        "meta_mean_motion": 14.25294618,
        "meta_eccentricity": 0.0114933,
        "meta_inclination": 86.3,
        "meta_ra_of_asc_node": 90.0718,
        "meta_arg_of_pericenter": 139.1781,
        "meta_mean_anomaly": 12.6912,
        "meta_ephemeris_type": 0,
        "meta_classification_type": "U",
        "meta_norad_cat_id": 33866,
        "meta_element_set_no": 999,
        "meta_rev_at_epoch": 86910,
        "meta_bstar": 0.00039483,
        "meta_mean_motion_dot": 1.015e-05,
        "meta_mean_motion_ddot": 0,
        "tle_line1": "1 33866U 97051AK  25353.74551690  .00001015  00000+0  39483-3 0  9999",
        "tle_line2": "2 33866  86.3000  90.0718 0114933 139.1781  12.6912 14.25294618869108"
      },
      "geometry": {
        "type": "Point",
        "coordinates": [
          -115.27109351770726,
          81.37682706632812
        ]
      }
    },
    {
      "type": "Feature",
      "properties": {
        "norad_id": 33867,
        "name": "IRIDIUM 33 DEB",
        "group": "iridium-33-debris",
        "lat": 49.57858690033201,
        "lon": -9.397629791564901,
        "alt_km": 309.8727684448204,
        "timestamp": "2025-12-19T22:41:52.780508+00:00",
        "meta_object_name": "IRIDIUM 33 DEB",
        "meta_object_id": "1997-051AL",
        "meta_epoch": "2025-12-19T05:47:32.215776",
        "meta_mean_motion": 15.81283525,
        "meta_eccentricity": 0.0013617,
        "meta_inclination": 86.3654,
        "meta_ra_of_asc_node": 346.6955,
        "meta_arg_of_pericenter": 94.4725,
        "meta_mean_anomaly": 265.8107,
        "meta_ephemeris_type": 0,
        "meta_classification_type": "U",
        "meta_norad_cat_id": 33867,
        "meta_element_set_no": 999,
        "meta_rev_at_epoch": 89613,
        "meta_bstar": 0.0071362,
        "meta_mean_motion_dot": 0.01596226,
        "meta_mean_motion_ddot": 0,
        "tle_line1": "1 33867U 97051AL  25353.24134509  .01596226  00000+0  71362-2 0  9996",
        "tle_line2": "2 33867  86.3654 346.6955 0013617  94.4725 265.8107 15.81283525896134"
      },
      "geometry": {
        "type": "Point",
        "coordinates": [
          -9.397629791564901,
          49.57858690033201
        ]
      }
    },
    {
      "type": "Feature",
      "properties": {
        "norad_id": 33870,
        "name": "IRIDIUM 33 DEB",
        "group": "iridium-33-debris",
        "lat": 10.279678207083437,
        "lon": 55.83129134049778,
        "alt_km": 753.6158464909258,
        "timestamp": "2025-12-19T22:41:52.780519+00:00",
        "meta_object_name": "IRIDIUM 33 DEB",
        "meta_object_id": "1997-051AP",
        "meta_epoch": "2025-12-19T15:02:56.916960",
        "meta_mean_motion": 14.45884184,
        "meta_eccentricity": 0.00222,
        "meta_inclination": 86.3744,
        "meta_ra_of_asc_node": 55.309,
        "meta_arg_of_pericenter": 156.0284,
        "meta_mean_anomaly": 356.6919,
        "meta_ephemeris_type": 0,
        "meta_classification_type": "U",
        "meta_norad_cat_id": 33870,
        "meta_element_set_no": 999,
        "meta_rev_at_epoch": 88236,
        "meta_bstar": 0.00048894,
        "meta_mean_motion_dot": 1.762e-05,
        "meta_mean_motion_ddot": 0,
        "tle_line1": "1 33870U 97051AP  25353.62704765  .00001762  00000+0  48894-3 0  9999",
        "tle_line2": "2 33870  86.3744  55.3090 0022200 156.0284 356.6919 14.45884184882362"
      },
      "geometry": {
        "type": "Point",
        "coordinates": [
          55.83129134049778,
          10.279678207083437
        ]
      }
    },
    {
      "type": "Feature",
      "properties": {
        "norad_id": 33881,
        "name": "IRIDIUM 33 DEB",
        "group": "iridium-33-debris",
        "lat": 21.95693647875651,
        "lon": -77.84973423459667,
        "alt_km": 660.4763899781028,
        "timestamp": "2025-12-19T22:41:52.780530+00:00",
        "meta_object_name": "IRIDIUM 33 DEB",
        "meta_object_id": "1997-051BA",
        "meta_epoch": "2025-12-18T18:38:37.341312",
        "meta_mean_motion": 14.56678227,
        "meta_eccentricity": 0.00614608,
        "meta_inclination": 86.3861,
        "meta_ra_of_asc_node": 104.1184,
        "meta_arg_of_pericenter": 155.2089,
        "meta_mean_anomaly": 356.6087,
        "meta_ephemeris_type": 0,
        "meta_classification_type": "U",
        "meta_norad_cat_id": 33881,
        "meta_element_set_no": 999,
        "meta_rev_at_epoch": 87588,
        "meta_bstar": 0.0015458281,
        "meta_mean_motion_dot": 7.103e-05,
        "meta_mean_motion_ddot": 0,
        "tle_line1": "1 33881U 97051BA  25352.77682108  .00007103  00000+0  15458-2 0  9996",
        "tle_line2": "2 33881  86.3861 104.1184 0061460 155.2089 356.6087 14.56678227875882"
      },
      "geometry": {
        "type": "Point",
        "coordinates": [
          -77.84973423459667,
          21.95693647875651
        ]
      }
    },
    {
      "type": "Feature",
      "properties": {
        "norad_id": 33884,
        "name": "IRIDIUM 33 DEB",
        "group": "iridium-33-debris",
        "lat": -74.80856453672457,
        "lon": -6.958477818485525,
        "alt_km": 638.1222766766314,
        "timestamp": "2025-12-19T22:41:52.780541+00:00",
        "meta_object_name": "IRIDIUM 33 DEB",
        "meta_object_id": "1997-051BD",
        "meta_epoch": "2025-12-19T06:51:00.174816",
        "meta_mean_motion": 14.77551072,
        "meta_eccentricity": 0.0009195,
        "meta_inclination": 86.3691,
        "meta_ra_of_asc_node": 6.8636,
        "meta_arg_of_pericenter": 298.3453,
        "meta_mean_anomaly": 76.3453,
        "meta_ephemeris_type": 0,
        "meta_classification_type": "U",
        "meta_norad_cat_id": 33884,
        "meta_element_set_no": 999,
        "meta_rev_at_epoch": 88944,
        "meta_bstar": 0.001004,
        "meta_mean_motion_dot": 7.196e-05,
        "meta_mean_motion_ddot": 0,
        "tle_line1": "1 33884U 97051BD  25353.28541869  .00007196  00000+0  10040-2 0  9998",
        "tle_line2": "2 33884  86.3691   6.8636 0009195 298.3453  76.3453 14.77551072889448"
      },
      "geometry": {
        "type": "Point",
        "coordinates": [
          -6.958477818485525,
          -74.80856453672457
        ]
      }
    }
  ]
}